start=new Date('2022-01-29T00:00:00.000Z').valueOf();
sats=[{"MEAN_ELEMENT_THEORY":"SGP4","TLE_LINE2":"2 47843  53.0557 154.3928 0001661  69.1780 290.9387 15.06398343 50320","ARG_OF_PERICENTER":"69.1780","FILE":"3286235","TIME_SYSTEM":"UTC","OBJECT_TYPE":"PAYLOAD","REF_FRAME":"TEME","NORAD_CAT_ID":"47843","REV_AT_EPOCH":"5032","DECAY_DATE":null,"APOAPSIS":"548.369","OBJECT_ID":"2021-018BJ","ELEMENT_SET_NO":"999","MEAN_MOTION":"15.06398343","PERIAPSIS":"546.068","EPOCH":"2022-01-28T19:10:12.337824","OBJECT_NAME":"STARLINK-2435","CLASSIFICATION_TYPE":"U","GP_ID":"194844282","SITE":"AFETR","CENTER_NAME":"EARTH","INCLINATION":"53.0557","MEAN_MOTION_DDOT":"0.0000000000000","PERIOD":"95.592","MEAN_MOTION_DOT":"0.00000358","ECCENTRICITY":"0.00016610","LAUNCH_DATE":"2021-03-11","SEMIMAJOR_AXIS":"6925.354","BSTAR":"0.00004296200000","RA_OF_ASC_NODE":"154.3928","MEAN_ANOMALY":"290.9387","TLE_LINE1":"1 47843U 21018BJ  22028.79875391  .00000358  00000-0  42962-4 0  9994","RCS_SIZE":"LARGE","COUNTRY_CODE":"US","EPHEMERIS_TYPE":"0"},{"INCLINATION":"53.0550","MEAN_MOTION_DDOT":"0.0000000000000","PERIOD":"95.591","MEAN_MOTION_DOT":"0.00002374","ECCENTRICITY":"0.00014060","PERIAPSIS":"546.188","EPOCH":"2022-01-28T14:21:34.329600","CLASSIFICATION_TYPE":"U","OBJECT_NAME":"STARLINK-2446","GP_ID":"194845034","SITE":"AFETR","CENTER_NAME":"EARTH","RCS_SIZE":"LARGE","COUNTRY_CODE":"US","EPHEMERIS_TYPE":"0","SEMIMAJOR_AXIS":"6925.297","LAUNCH_DATE":"2021-03-11","BSTAR":"0.00017814000000","RA_OF_ASC_NODE":"150.2802","MEAN_ANOMALY":"270.2488","TLE_LINE1":"1 47844U 21018BK  22028.59831400  .00002374  00000-0  17814-3 0  9993","REF_FRAME":"TEME","NORAD_CAT_ID":"47844","REV_AT_EPOCH":"5034","DECAY_DATE":null,"APOAPSIS":"548.135","TLE_LINE2":"2 47844  53.0550 150.2802 0001406  89.8662 270.2488 15.06416891 50349","MEAN_ELEMENT_THEORY":"SGP4","FILE":"3286235","ARG_OF_PERICENTER":"89.8662","TIME_SYSTEM":"UTC","OBJECT_TYPE":"PAYLOAD","OBJECT_ID":"2021-018BK","ELEMENT_SET_NO":"999","MEAN_MOTION":"15.06416891"},{"ECCENTRICITY":"0.00017560","MEAN_MOTION_DOT":"0.00001357","PERIOD":"95.592","INCLINATION":"53.0548","MEAN_MOTION_DDOT":"0.0000000000000","CENTER_NAME":"EARTH","SITE":"AFETR","GP_ID":"194844785","EPOCH":"2022-01-28T17:59:13.132320","PERIAPSIS":"546.008","CLASSIFICATION_TYPE":"U","OBJECT_NAME":"STARLINK-2453","EPHEMERIS_TYPE":"0","COUNTRY_CODE":"US","RCS_SIZE":"LARGE","MEAN_ANOMALY":"280.5194","TLE_LINE1":"1 47845U 21018BL  22028.74945755  .00001357  00000-0  10998-3 0  9996","SEMIMAJOR_AXIS":"6925.359","LAUNCH_DATE":"2021-03-11","BSTAR":"0.00010998000000","RA_OF_ASC_NODE":"149.6089","APOAPSIS":"548.440","REV_AT_EPOCH":"5037","DECAY_DATE":null,"REF_FRAME":"TEME","NORAD_CAT_ID":"47845","OBJECT_TYPE":"PAYLOAD","TIME_SYSTEM":"UTC","FILE":"3286235","ARG_OF_PERICENTER":"79.5993","TLE_LINE2":"2 47845  53.0548 149.6089 0001756  79.5993 280.5194 15.06396624 50379","MEAN_ELEMENT_THEORY":"SGP4","ELEMENT_SET_NO":"999","MEAN_MOTION":"15.06396624","OBJECT_ID":"2021-018BL"},{"GP_ID":"194812988","CLASSIFICATION_TYPE":"U","OBJECT_NAME":"STARLINK-2456","EPOCH":"2022-01-28T14:42:49.252320","PERIAPSIS":"546.071","SITE":"AFETR","CENTER_NAME":"EARTH","MEAN_MOTION_DDOT":"0.0000000000000","INCLINATION":"53.0536","ECCENTRICITY":"0.00016330","MEAN_MOTION_DOT":"0.00001263","PERIOD":"95.592","RA_OF_ASC_NODE":"150.2198","LAUNCH_DATE":"2021-03-11","BSTAR":"0.00010364000000","SEMIMAJOR_AXIS":"6925.337","TLE_LINE1":"1 47846U 21018BM  22028.61307005  .00001263  00000-0  10364-3 0  9996","MEAN_ANOMALY":"271.3831","COUNTRY_CODE":"US","RCS_SIZE":"LARGE","EPHEMERIS_TYPE":"0","ARG_OF_PERICENTER":"88.7345","FILE":"3285972","TLE_LINE2":"2 47846  53.0536 150.2198 0001633  88.7345 271.3831 15.06403821 50401","MEAN_ELEMENT_THEORY":"SGP4","OBJECT_TYPE":"PAYLOAD","TIME_SYSTEM":"UTC","DECAY_DATE":null,"REV_AT_EPOCH":"5040","NORAD_CAT_ID":"47846","REF_FRAME":"TEME","APOAPSIS":"548.333","OBJECT_ID":"2021-018BM","MEAN_MOTION":"15.06403821","ELEMENT_SET_NO":"999"},{"MEAN_ELEMENT_THEORY":"SGP4","TLE_LINE2":"2 47860  53.0549 179.3105 0002013  84.7333 275.3885 15.06407854 49734","FILE":"3286235","ARG_OF_PERICENTER":"84.7333","TIME_SYSTEM":"UTC","OBJECT_TYPE":"PAYLOAD","NORAD_CAT_ID":"47860","REF_FRAME":"TEME","DECAY_DATE":null,"REV_AT_EPOCH":"4973","APOAPSIS":"548.584","OBJECT_ID":"2021-021A","MEAN_MOTION":"15.06407854","ELEMENT_SET_NO":"999","CLASSIFICATION_TYPE":"U","OBJECT_NAME":"STARLINK-2258","EPOCH":"2022-01-28T19:36:04.372992","PERIAPSIS":"545.795","GP_ID":"194844536","SITE":"AFETR","CENTER_NAME":"EARTH","MEAN_MOTION_DDOT":"0.0000000000000","INCLINATION":"53.0549","PERIOD":"95.592","MEAN_MOTION_DOT":"0.00000249","ECCENTRICITY":"0.00020130","RA_OF_ASC_NODE":"179.3105","BSTAR":"0.00003564200000","LAUNCH_DATE":"2021-03-14","SEMIMAJOR_AXIS":"6925.324","TLE_LINE1":"1 47860U 21021A   22028.81671728  .00000249  00000-0  35642-4 0  9994","MEAN_ANOMALY":"275.3885","RCS_SIZE":"LARGE","COUNTRY_CODE":"US","EPHEMERIS_TYPE":"0"},{"APOAPSIS":"548.545","DECAY_DATE":null,"REV_AT_EPOCH":"5004","NORAD_CAT_ID":"47861","REF_FRAME":"TEME","OBJECT_TYPE":"PAYLOAD","TIME_SYSTEM":"UTC","FILE":"3286235","ARG_OF_PERICENTER":"89.1842","TLE_LINE2":"2 47861  53.0533 164.5277 0001906  89.1842 270.9366 15.06396174 50041","MEAN_ELEMENT_THEORY":"SGP4","MEAN_MOTION":"15.06396174","ELEMENT_SET_NO":"999","OBJECT_ID":"2021-021B","ECCENTRICITY":"0.00019060","MEAN_MOTION_DOT":"0.00000633","PERIOD":"95.592","MEAN_MOTION_DDOT":"0.0000000000000","INCLINATION":"53.0533","SITE":"AFETR","CENTER_NAME":"EARTH","GP_ID":"194845286","CLASSIFICATION_TYPE":"U","OBJECT_NAME":"STARLINK-2280","EPOCH":"2022-01-28T18:26:25.398528","PERIAPSIS":"545.905","EPHEMERIS_TYPE":"0","COUNTRY_CODE":"US","RCS_SIZE":"LARGE","TLE_LINE1":"1 47861U 21021B   22028.76834952  .00000633  00000-0  61437-4 0  9997","MEAN_ANOMALY":"270.9366","RA_OF_ASC_NODE":"164.5277","BSTAR":"0.00006143700000","LAUNCH_DATE":"2021-03-14","SEMIMAJOR_AXIS":"6925.360"},{"APOAPSIS":"548.735","REF_FRAME":"TEME","NORAD_CAT_ID":"47862","REV_AT_EPOCH":"5010","DECAY_DATE":null,"TIME_SYSTEM":"UTC","OBJECT_TYPE":"PAYLOAD","TLE_LINE2":"2 47862  53.0559 159.6145 0002207  86.5463 273.5778 15.06402346 50106","MEAN_ELEMENT_THEORY":"SGP4","ARG_OF_PERICENTER":"86.5463","FILE":"3286235","ELEMENT_SET_NO":"999","MEAN_MOTION":"15.06402346","OBJECT_ID":"2021-021C","PERIOD":"95.592","MEAN_MOTION_DOT":"0.00000632","ECCENTRICITY":"0.00022070","INCLINATION":"53.0559","MEAN_MOTION_DDOT":"0.0000000000000","SITE":"AFETR","CENTER_NAME":"EARTH","EPOCH":"2022-01-28T17:57:53.208000","PERIAPSIS":"545.678","CLASSIFICATION_TYPE":"U","OBJECT_NAME":"STARLINK-2291","GP_ID":"194844034","EPHEMERIS_TYPE":"0","RCS_SIZE":"LARGE","COUNTRY_CODE":"US","MEAN_ANOMALY":"273.5778","TLE_LINE1":"1 47862U 21021C   22028.74853250  .00000632  00000-0  61340-4 0  9990","LAUNCH_DATE":"2021-03-14","BSTAR":"0.00006134000000","SEMIMAJOR_AXIS":"6925.341","RA_OF_ASC_NODE":"159.6145"},{"OBJECT_ID":"2021-021D","MEAN_MOTION":"15.06396141","ELEMENT_SET_NO":"999","ARG_OF_PERICENTER":"83.1960","FILE":"3286235","TLE_LINE2":"2 47863  53.0553 169.7950 0001742  83.1960 276.9228 15.06396141 49969","MEAN_ELEMENT_THEORY":"SGP4","OBJECT_TYPE":"PAYLOAD","TIME_SYSTEM":"UTC","DECAY_DATE":null,"REV_AT_EPOCH":"4996","NORAD_CAT_ID":"47863","REF_FRAME":"TEME","APOAPSIS":"548.432","RA_OF_ASC_NODE":"169.7950","SEMIMAJOR_AXIS":"6925.360","LAUNCH_DATE":"2021-03-14","BSTAR":"0.00002889600000","TLE_LINE1":"1 47863U 21021D   22028.70707021  .00000149  00000-0  28896-4 0  9993","MEAN_ANOMALY":"276.9228","COUNTRY_CODE":"US","RCS_SIZE":"LARGE","EPHEMERIS_TYPE":"0","GP_ID":"194844284","OBJECT_NAME":"STARLINK-2293","CLASSIFICATION_TYPE":"U","PERIAPSIS":"546.019","EPOCH":"2022-01-28T16:58:10.866144","CENTER_NAME":"EARTH","SITE":"AFETR","MEAN_MOTION_DDOT":"0.0000000000000","INCLINATION":"53.0553","MEAN_MOTION_DOT":"0.00000149","ECCENTRICITY":"0.00017420","PERIOD":"95.592"},{"ELEMENT_SET_NO":"999","MEAN_MOTION":"15.06403289","OBJECT_ID":"2021-021E","APOAPSIS":"548.357","REV_AT_EPOCH":"5008","DECAY_DATE":null,"REF_FRAME":"TEME","NORAD_CAT_ID":"47864","OBJECT_TYPE":"PAYLOAD","TIME_SYSTEM":"UTC","ARG_OF_PERICENTER":"85.3029","FILE":"3286235","MEAN_ELEMENT_THEORY":"SGP4","TLE_LINE2":"2 47864  53.0560 159.6207 0001666  85.3029 274.8150 15.06403289 50084","EPHEMERIS_TYPE":"0","COUNTRY_CODE":"US","RCS_SIZE":"LARGE","MEAN_ANOMALY":"274.8150","TLE_LINE1":"1 47864U 21021E   22028.74758400  .00000591  00000-0  58551-4 0  9997","LAUNCH_DATE":"2021-03-14","BSTAR":"0.00005855100000","SEMIMAJOR_AXIS":"6925.338","RA_OF_ASC_NODE":"159.6207","MEAN_MOTION_DOT":"0.00000591","ECCENTRICITY":"0.00016660","PERIOD":"95.592","INCLINATION":"53.0560","MEAN_MOTION_DDOT":"0.0000000000000","SITE":"AFETR","CENTER_NAME":"EARTH","GP_ID":"194845036","EPOCH":"2022-01-28T17:56:31.257600","PERIAPSIS":"546.050","OBJECT_NAME":"STARLINK-2304","CLASSIFICATION_TYPE":"U"},{"SITE":"AFETR","CENTER_NAME":"EARTH","GP_ID":"194844787","PERIAPSIS":"546.052","EPOCH":"2022-01-28T17:56:33.644832","CLASSIFICATION_TYPE":"U","OBJECT_NAME":"STARLINK-2310","MEAN_MOTION_DOT":"0.00000444","ECCENTRICITY":"0.00016850","PERIOD":"95.592","INCLINATION":"53.0546","MEAN_MOTION_DDOT":"0.0000000000000","MEAN_ANOMALY":"276.7823","TLE_LINE1":"1 47865U 21021F   22028.74761163  .00000444  00000-0  48689-4 0  9996","LAUNCH_DATE":"2021-03-14","BSTAR":"0.00004868900000","SEMIMAJOR_AXIS":"6925.354","RA_OF_ASC_NODE":"169.5956","EPHEMERIS_TYPE":"0","COUNTRY_CODE":"US","RCS_SIZE":"LARGE","OBJECT_TYPE":"PAYLOAD","TIME_SYSTEM":"UTC","ARG_OF_PERICENTER":"83.3358","FILE":"3286235","MEAN_ELEMENT_THEORY":"SGP4","TLE_LINE2":"2 47865  53.0546 169.5956 0001685  83.3358 276.7823 15.06398344 50076","APOAPSIS":"548.386","REV_AT_EPOCH":"5007","DECAY_DATE":null,"REF_FRAME":"TEME","NORAD_CAT_ID":"47865","ELEMENT_SET_NO":"999","MEAN_MOTION":"15.06398344","OBJECT_ID":"2021-021F"}];
